[{"OBJECT_NAME":"STARLINK-32908","OBJECT_ID":"2025-037H","EPOCH":"2026-03-09T21:33:28.159776","MEAN_MOTION":14.98334862,"ECCENTRICITY":0.00027491,"INCLINATION":70.0038,"RA_OF_ASC_NODE":353.9146,"ARG_OF_PERICENTER":251.3607,"MEAN_ANOMALY":108.7254,"EPHEMERIS_TYPE":0,"CLASSIFICATION_TYPE":"U","NORAD_CAT_ID":63084,"ELEMENT_SET_NO":999,"REV_AT_EPOCH":5849,"BSTAR":0.00077539397,"MEAN_MOTION_DOT":9.172e-5,"MEAN_MOTION_DDOT":0},{"OBJECT_NAME":"CZ-2C R\/B","OBJECT_ID":"2017-058D","EPOCH":"2026-03-09T16:59:52.285056","MEAN_MOTION":14.86156535,"ECCENTRICITY":0.00586876,"INCLINATION":34.9248,"RA_OF_ASC_NODE":220.8094,"ARG_OF_PERICENTER":138.3412,"MEAN_ANOMALY":222.178,"EPHEMERIS_TYPE":0,"CLASSIFICATION_TYPE":"U","NORAD_CAT_ID":42948,"ELEMENT_SET_NO":999,"REV_AT_EPOCH":45742,"BSTAR":0.00024135998,"MEAN_MOTION_DOT":2.199e-5,"MEAN_MOTION_DDOT":0}]
